IRIDIUM 65 [+]          
1 25288U 98021D   16081.50476481  .00000063  00000-0  15519-4 0  9990
2 25288  86.3952  53.0958 0002331  82.3434 277.8026 14.34217515940135
IRIDIUM 66 [+]          
1 25289U 98021E   16081.46226949  .00000064  00000-0  15802-4 0  9994
2 25289  86.3951  53.0208 0002335  85.0356  23.0700 14.34217145940128
IRIDIUM 67 [+]          
1 25290U 98021F   16081.44767944  .00000066  00000-0  16541-4 0  9992
2 25290  86.3952  53.1566 0002267  86.0626 274.0829 14.34217613940135
IRIDIUM 68 [+]          
1 25291U 98021G   16081.45402691  .00000071  00000-0  18225-4 0  9996
2 25291  86.3954  53.2641 0002349  86.7168 273.4297 14.34217479940101
IRIDIUM 69 [-]          
1 25319U 98026A   16081.51787254  .00000232  00000-0  69364-4 0  9999
2 25319  86.3953  76.1562 0001943  33.8262 326.3060 14.38569160937950
IRIDIUM 71 [-]          
1 25320U 98026B   16081.42980637  .00000199  00000-0  58107-4 0  9996
2 25320  86.3940  72.2997 0003745  61.9620 298.1957 14.38991607938350
IRIDIUM 70 [+]          
1 25342U 98032A   16081.44046624  .00000072  00000-0  18525-4 0  9998
2 25342  86.3957  53.4901 0002388  84.7173  74.5741 14.34217661934200
IRIDIUM 72 [+]          
1 25343U 98032B   16081.49372200  .00000059  00000-0  14167-4 0  9999
2 25343  86.3952  53.1091 0002288  85.2370  54.2791 14.34217332934213
IRIDIUM 73 [-]          
1 25344U 98032C   16081.39708320  .00000268  00000-0  65559-4 0  9998
2 25344  86.4448  34.2753 0002759  98.6515 261.5002 14.48912007941988
IRIDIUM 74 [S]          
1 25345U 98032D   16081.53159663  .00000111  00000-0  27123-4 0  9997
2 25345  86.4463  53.4261 0002130  84.5341  21.1696 14.42945769937470
IRIDIUM 75 [+]          
1 25346U 98032E   16081.50004605  .00000063  00000-0  15378-4 0  9995
2 25346  86.3956  53.3429 0002272  85.6972  53.7347 14.34217499934789
IRIDIUM 3 [+]           
1 25431U 98048A   16081.54972942  .00000096  00000-0  27319-4 0  9993
2 25431  86.3922  84.9400 0002389  86.8218  28.9971 14.34216962920732
IRIDIUM 76 [+]          
1 25432U 98048B   16081.42489260  .00000039  00000-0  67150-5 0  9992
2 25432  86.3919  84.7610 0002408  91.3399   2.6172 14.34217140920701
IRIDIUM 82 [+]          
1 25467U 98051A   16081.37608220  .00000269  00000-0  88855-4 0  9996
2 25467  86.4015 211.3705 0001900  91.0346 269.1068 14.34219502921715
IRIDIUM 81 [+]          
1 25468U 98051B   16081.43946866  .00000214  00000-0  69256-4 0  9999
2 25468  86.3996 210.9846 0002033  97.9698 262.1728 14.34218102917948
IRIDIUM 80 [+]          
1 25469U 98051C   16081.43472541  .00000203  00000-0  65571-4 0  9998
2 25469  86.4000 211.2524 0002106 101.0576 332.7838 14.34217790917944
IRIDIUM 77 [+]          
1 25471U 98051E   16081.43374169  .00000213  00000-0  69173-4 0  9991
2 25471  86.3991 210.8675 0002247  96.7778 299.2641 14.34218139923143
IRIDIUM 2 [-]           
1 25527U 98066A   16081.44684515  .00002875  00000-0  15259-3 0  9990
2 25527  85.5291 299.1428 0008285 325.2926  34.7771 15.14873757949290
IRIDIUM 86 [+]          
1 25528U 98066B   16081.38527311  .00000267  00000-0  88463-4 0  9995
2 25528  86.4014 179.1031 0002347  93.9753 266.1711 14.34212215914464
IRIDIUM 84 [+]          
1 25530U 98066D   16081.34721605  .00000284  00000-0  94356-4 0  9993
2 25530  86.4014 179.2760 0002189 100.2880 259.8563 14.34212442912097
IRIDIUM 83 [+]          
1 25531U 98066E   16081.44869849  .00000283  00000-0  94169-4 0  9999
2 25531  86.4018 179.3405 0002192  99.5000 260.6444 14.34212393909467
IRIDIUM 20 [+]          
1 25577U 98074A   16081.43841630  .00000040  00000-0  71874-5 0  9995
2 25577  86.3918  84.6831 0002299  88.5119 271.6340 14.34217062903541
IRIDIUM 11 [+]          
1 25578U 98074B   16081.54289744  .00000042  00000-0  80319-5 0  9996
2 25578  86.3916  84.8455 0002206  86.9172  26.7630 14.34217657912522
IRIDIUM 14 [S]          
1 25777U 99032A   16081.45213176  .00000069  00000-0  17522-4 0  9992
2 25777  86.3955  53.2001 0002367  83.7908  70.2427 14.34217313889781
IRIDIUM 21 [+]          
1 25778U 99032B   16081.46036431  .00000062  00000-0  15201-4 0  9996
2 25778  86.3954  53.2210 0002271  89.6237 270.5219 14.34217659883227
IRIDIUM 91 [+]          
1 27372U 02005A   16081.53137492  .00000051  00000-0  11322-4 0  9997
2 27372  86.3953 117.0449 0002018  91.8719  75.6435 14.34218503746748
IRIDIUM 90 [S]          
1 27373U 02005B   16081.49649350  .00000346  00000-0  97469-4 0  9997
2 27373  86.4528 179.2870 0002475  97.6012 262.5470 14.42952762746076
IRIDIUM 94 [S]          
1 27374U 02005C   16081.50195369  .00000013  00000-0 -24391-5 0  9993
2 27374  86.3919  84.9834 0003209  91.0594  73.2107 14.34216052751066
IRIDIUM 95 [+]          
1 27375U 02005D   16081.46721225  .00000061  00000-0  14837-4 0  9990
2 27375  86.3953 116.8547 0002387  93.8502 266.2967 14.34219963746028
IRIDIUM 96 [S]          
1 27376U 02005E   16081.23598214  .00000256  00000-0  84484-4 0  9997
2 27376  86.4020 148.4287 0002988 126.0794 234.0679 14.34220278751194
IRIDIUM 97 [+]          
1 27450U 02031A   16081.20427036  .00000223  00000-0  72598-4 0  9996
2 27450  86.3988 148.2850 0002089  97.0805 263.0628 14.34220329725302
IRIDIUM 98 [S]          
1 27451U 02031B   16081.40753293  .00000234  00000-0  76450-4 0  9999
2 27451  86.3990 211.4492 0001977 100.4057 291.3168 14.34216468726408
